ONEWEB-0332             
1 49279U 21090A   24022.18951441 -.00000021  00000+0 -90763-4 0  9999
2 49279  87.8970 104.2937 0002118 110.3285 249.8073 13.14504034112361
ONEWEB-0347             
1 49280U 21090B   24022.23558627  .00000123  00000+0  27051-3 0  9996
2 49280  87.9174  89.0084 0002201 109.8051 250.3320 13.20770078115286
ONEWEB-0349             
1 49281U 21090C   24022.11563726  .00000068  00000+0  13409-3 0  9990
2 49281  87.9176  89.0294 0001614  94.0245 266.1073 13.20771679115344
ONEWEB-0353             
1 49282U 21090D   24021.72486899 -.00000119  00000+0 -35428-3 0  9996
2 49282  87.8972 104.3705 0002049 108.4669 251.6683 13.14501256112303
ONEWEB-0356             
1 49283U 21090E   24022.18980888 -.00000070  00000+0 -20357-3 0  9996
2 49283  87.9175  89.0107 0001313 133.0903 227.0340 13.20770516115352
ONEWEB-0358             
1 49284U 21090F   24022.21979668  .00000049  00000+0  87642-4 0  9990
2 49284  87.9176  88.9902 0001486 100.1856 259.9445 13.20771298116087
ONEWEB-0359             
1 49285U 21090G   24022.14088803 -.00000118  00000+0 -32094-3 0  9994
2 49285  87.9174  89.0268 0001714  84.9979 275.1350 13.20770765116041
ONEWEB-0360             
1 49286U 21090H   24022.13141752  .00000135  00000+0  29996-3 0  9991
2 49286  87.9173  89.0324 0001839  97.2735 262.8607 13.20772216115364
